CCSDS_OMM_VERS = 2.0
CREATION_DATE  = 
ORIGINATOR     = 

OBJECT_NAME    = SL-16 R/B
OBJECT_ID      = 1994-077B
CENTER_NAME    = EARTH
REF_FRAME      = TEME
TIME_SYSTEM    = UTC
MEAN_ELEMENT_THEORY = SGP/SGP4

EPOCH          = 2026-03-10T04:35:17.696256
MEAN_MOTION    = 14.15561273
ECCENTRICITY   = .00030672
INCLINATION    = 70.9853
RA_OF_ASC_NODE = 351.4341
ARG_OF_PERICENTER = 211.4855
MEAN_ANOMALY   = 148.6084

EPHEMERIS_TYPE = 0
CLASSIFICATION_TYPE = U
NORAD_CAT_ID   = 23405
ELEMENT_SET_NO = 999
REV_AT_EPOCH   = 61630
BSTAR          = .24297659E-4
MEAN_MOTION_DOT = 0
MEAN_MOTION_DDOT = 0

CCSDS_OMM_VERS = 2.0
CREATION_DATE  = 
ORIGINATOR     = 

OBJECT_NAME    = ARIANE 40+ R/B
OBJECT_ID      = 1995-021B
CENTER_NAME    = EARTH
REF_FRAME      = TEME
TIME_SYSTEM    = UTC
MEAN_ELEMENT_THEORY = SGP/SGP4

EPOCH          = 2026-03-10T03:47:42.690336
MEAN_MOTION    = 14.39772837
ECCENTRICITY   = .00076631
INCLINATION    = 98.4495
RA_OF_ASC_NODE = 140.6344
ARG_OF_PERICENTER = 135.1800
MEAN_ANOMALY   = 254.0412

EPHEMERIS_TYPE = 0
CLASSIFICATION_TYPE = U
NORAD_CAT_ID   = 23561
ELEMENT_SET_NO = 999
REV_AT_EPOCH   = 61931
BSTAR          = .12658114E-3
MEAN_MOTION_DOT = .353E-5
MEAN_MOTION_DDOT = 0

CCSDS_OMM_VERS = 2.0
CREATION_DATE  = 
ORIGINATOR     = 

OBJECT_NAME    = SL-16 R/B
OBJECT_ID      = 1995-058B
CENTER_NAME    = EARTH
REF_FRAME      = TEME
TIME_SYSTEM    = UTC
MEAN_ELEMENT_THEORY = SGP/SGP4

EPOCH          = 2026-03-10T11:32:27.349440
MEAN_MOTION    = 14.15495797
ECCENTRICITY   = .001076
INCLINATION    = 71.0221
RA_OF_ASC_NODE = 178.5940
ARG_OF_PERICENTER = 124.3889
MEAN_ANOMALY   = 235.8254

EPHEMERIS_TYPE = 0
CLASSIFICATION_TYPE = U
NORAD_CAT_ID   = 23705
ELEMENT_SET_NO = 999
REV_AT_EPOCH   = 56796
BSTAR          = .18985E-3
MEAN_MOTION_DOT = .324E-5
MEAN_MOTION_DDOT = 0

CCSDS_OMM_VERS = 2.0
CREATION_DATE  = 
ORIGINATOR     = 

OBJECT_NAME    = SL-16 R/B
OBJECT_ID      = 1996-051B
CENTER_NAME    = EARTH
REF_FRAME      = TEME
TIME_SYSTEM    = UTC
MEAN_ELEMENT_THEORY = SGP/SGP4

EPOCH          = 2026-03-10T12:28:57.338976
MEAN_MOTION    = 14.12415870
ECCENTRICITY   = .0015024
INCLINATION    = 70.7603
RA_OF_ASC_NODE = 173.4809
ARG_OF_PERICENTER = 146.8494
MEAN_ANOMALY   = 213.3570

EPHEMERIS_TYPE = 0
CLASSIFICATION_TYPE = U
NORAD_CAT_ID   = 24298
ELEMENT_SET_NO = 999
REV_AT_EPOCH   = 52176
BSTAR          = .7881E-4
MEAN_MOTION_DOT = .96E-6
MEAN_MOTION_DDOT = 0

CCSDS_OMM_VERS = 2.0
CREATION_DATE  = 
ORIGINATOR     = 

OBJECT_NAME    = ORBVIEW 2 (SEASTAR)
OBJECT_ID      = 1997-037A
CENTER_NAME    = EARTH
REF_FRAME      = TEME
TIME_SYSTEM    = UTC
MEAN_ELEMENT_THEORY = SGP/SGP4

EPOCH          = 2026-03-10T11:07:19.691040
MEAN_MOTION    = 14.35495696
ECCENTRICITY   = .0003083
INCLINATION    = 98.8570
RA_OF_ASC_NODE = 233.7957
ARG_OF_PERICENTER = 70.5363
MEAN_ANOMALY   = 289.6155

EPHEMERIS_TYPE = 0
CLASSIFICATION_TYPE = U
NORAD_CAT_ID   = 24883
ELEMENT_SET_NO = 999
REV_AT_EPOCH   = 50858
BSTAR          = .15111E-3
MEAN_MOTION_DOT = .388E-5
MEAN_MOTION_DDOT = 0

CCSDS_OMM_VERS = 2.0
CREATION_DATE  = 
ORIGINATOR     = 

OBJECT_NAME    = SL-16 R/B
OBJECT_ID      = 1998-043G
CENTER_NAME    = EARTH
REF_FRAME      = TEME
TIME_SYSTEM    = UTC
MEAN_ELEMENT_THEORY = SGP/SGP4

EPOCH          = 2026-03-10T10:23:51.249984
MEAN_MOTION    = 14.26050082
ECCENTRICITY   = .0010183
INCLINATION    = 98.8253
RA_OF_ASC_NODE = 22.8019
ARG_OF_PERICENTER = 18.3175
MEAN_ANOMALY   = 341.8370

EPHEMERIS_TYPE = 0
CLASSIFICATION_TYPE = U
NORAD_CAT_ID   = 25400
ELEMENT_SET_NO = 999
REV_AT_EPOCH   = 43909
BSTAR          = .64612E-4
MEAN_MOTION_DOT = .109E-5
MEAN_MOTION_DDOT = 0

CCSDS_OMM_VERS = 2.0
CREATION_DATE  = 
ORIGINATOR     = 

OBJECT_NAME    = SL-16 R/B
OBJECT_ID      = 1998-045B
CENTER_NAME    = EARTH
REF_FRAME      = TEME
TIME_SYSTEM    = UTC
MEAN_ELEMENT_THEORY = SGP/SGP4

EPOCH          = 2026-03-10T11:47:37.895712
MEAN_MOTION    = 14.16190371
ECCENTRICITY   = .0006775
INCLINATION    = 71.0119
RA_OF_ASC_NODE = 179.8882
ARG_OF_PERICENTER = 6.8453
MEAN_ANOMALY   = 353.2761

EPHEMERIS_TYPE = 0
CLASSIFICATION_TYPE = U
NORAD_CAT_ID   = 25407
ELEMENT_SET_NO = 999
REV_AT_EPOCH   = 42721
BSTAR          = .13295E-3
MEAN_MOTION_DOT = .216E-5
MEAN_MOTION_DDOT = 0

CCSDS_OMM_VERS = 2.0
CREATION_DATE  = 
ORIGINATOR     = 

OBJECT_NAME    = ISS (ZARYA)
OBJECT_ID      = 1998-067A
CENTER_NAME    = EARTH
REF_FRAME      = TEME
TIME_SYSTEM    = UTC
MEAN_ELEMENT_THEORY = SGP/SGP4

EPOCH          = 2026-03-10T11:33:06.281280
MEAN_MOTION    = 15.48562436
ECCENTRICITY   = .0007951
INCLINATION    = 51.6323
RA_OF_ASC_NODE = 68.4424
ARG_OF_PERICENTER = 177.3714
MEAN_ANOMALY   = 182.7318

EPHEMERIS_TYPE = 0
CLASSIFICATION_TYPE = U
NORAD_CAT_ID   = 25544
ELEMENT_SET_NO = 999
REV_AT_EPOCH   = 55645
BSTAR          = .17349E-3
MEAN_MOTION_DOT = .8982E-4
MEAN_MOTION_DDOT = 0

CCSDS_OMM_VERS = 2.0
CREATION_DATE  = 
ORIGINATOR     = 

OBJECT_NAME    = CZ-4B R/B
OBJECT_ID      = 1999-025C
CENTER_NAME    = EARTH
REF_FRAME      = TEME
TIME_SYSTEM    = UTC
MEAN_ELEMENT_THEORY = SGP/SGP4

EPOCH          = 2026-03-10T01:58:37.854048
MEAN_MOTION    = 14.18265352
ECCENTRICITY   = .00367159
INCLINATION    = 98.6626
RA_OF_ASC_NODE = 113.3547
ARG_OF_PERICENTER = 345.4857
MEAN_ANOMALY   = 43.2279

EPHEMERIS_TYPE = 0
CLASSIFICATION_TYPE = U
NORAD_CAT_ID   = 25732
ELEMENT_SET_NO = 999
REV_AT_EPOCH   = 38822
BSTAR          = .47799738E-4
MEAN_MOTION_DOT = .56E-6
MEAN_MOTION_DDOT = 0

CCSDS_OMM_VERS = 2.0
CREATION_DATE  = 
ORIGINATOR     = 

OBJECT_NAME    = OKEAN-O
OBJECT_ID      = 1999-039A
CENTER_NAME    = EARTH
REF_FRAME      = TEME
TIME_SYSTEM    = UTC
MEAN_ELEMENT_THEORY = SGP/SGP4

EPOCH          = 2026-03-10T03:00:11.122272
MEAN_MOTION    = 14.80335846
ECCENTRICITY   = .00012547
INCLINATION    = 97.9441
RA_OF_ASC_NODE = 129.0122
ARG_OF_PERICENTER = 70.1592
MEAN_ANOMALY   = 289.9755

EPHEMERIS_TYPE = 0
CLASSIFICATION_TYPE = U
NORAD_CAT_ID   = 25860
ELEMENT_SET_NO = 999
REV_AT_EPOCH   = 43445
BSTAR          = .11093537E-3
MEAN_MOTION_DOT = .794E-5
MEAN_MOTION_DDOT = 0

CCSDS_OMM_VERS = 2.0
CREATION_DATE  = 
ORIGINATOR     = 

OBJECT_NAME    = SL-16 R/B
OBJECT_ID      = 1999-039B
CENTER_NAME    = EARTH
REF_FRAME      = TEME
TIME_SYSTEM    = UTC
MEAN_ELEMENT_THEORY = SGP/SGP4

EPOCH          = 2026-03-10T04:07:50.336832
MEAN_MOTION    = 14.81732333
ECCENTRICITY   = .00135229
INCLINATION    = 97.9966
RA_OF_ASC_NODE = 128.2682
ARG_OF_PERICENTER = 254.3522
MEAN_ANOMALY   = 105.6199

EPHEMERIS_TYPE = 0
CLASSIFICATION_TYPE = U
NORAD_CAT_ID   = 25861
ELEMENT_SET_NO = 999
REV_AT_EPOCH   = 43693
BSTAR          = .96211642E-4
MEAN_MOTION_DOT = .705E-5
MEAN_MOTION_DDOT = 0

CCSDS_OMM_VERS = 2.0
CREATION_DATE  = 
ORIGINATOR     = 

OBJECT_NAME    = DELTA 2 R/B
OBJECT_ID      = 1999-041E
CENTER_NAME    = EARTH
REF_FRAME      = TEME
TIME_SYSTEM    = UTC
MEAN_ELEMENT_THEORY = SGP/SGP4

EPOCH          = 2026-03-10T00:11:40.599456
MEAN_MOTION    = 14.11838777
ECCENTRICITY   = .05024086
INCLINATION    = 51.7624
RA_OF_ASC_NODE = 300.0088
ARG_OF_PERICENTER = 349.3726
MEAN_ANOMALY   = 9.6894

EPHEMERIS_TYPE = 0
CLASSIFICATION_TYPE = U
NORAD_CAT_ID   = 25876
ELEMENT_SET_NO = 999
REV_AT_EPOCH   = 36307
BSTAR          = .24629377E-3
MEAN_MOTION_DOT = .1293E-4
MEAN_MOTION_DDOT = 0

CCSDS_OMM_VERS = 2.0
CREATION_DATE  = 
ORIGINATOR     = 

OBJECT_NAME    = HELIOS 1B
OBJECT_ID      = 1999-064A
CENTER_NAME    = EARTH
REF_FRAME      = TEME
TIME_SYSTEM    = UTC
MEAN_ELEMENT_THEORY = SGP/SGP4

EPOCH          = 2026-03-10T07:39:37.265184
MEAN_MOTION    = 14.87702169
ECCENTRICITY   = .0002457
INCLINATION    = 98.1688
RA_OF_ASC_NODE = 331.5811
ARG_OF_PERICENTER = 74.1956
MEAN_ANOMALY   = 285.9530

EPHEMERIS_TYPE = 0
CLASSIFICATION_TYPE = U
NORAD_CAT_ID   = 25977
ELEMENT_SET_NO = 999
REV_AT_EPOCH   = 68535
BSTAR          = .25615E-3
MEAN_MOTION_DOT = .2275E-4
MEAN_MOTION_DDOT = 0

CCSDS_OMM_VERS = 2.0
CREATION_DATE  = 
ORIGINATOR     = 

OBJECT_NAME    = TERRA
OBJECT_ID      = 1999-068A
CENTER_NAME    = EARTH
REF_FRAME      = TEME
TIME_SYSTEM    = UTC
MEAN_ELEMENT_THEORY = SGP/SGP4

EPOCH          = 2026-03-10T11:27:37.253664
MEAN_MOTION    = 14.61015689
ECCENTRICITY   = .0002746
INCLINATION    = 97.9593
RA_OF_ASC_NODE = 122.8822
ARG_OF_PERICENTER = 149.5117
MEAN_ANOMALY   = 318.5160

EPHEMERIS_TYPE = 0
CLASSIFICATION_TYPE = U
NORAD_CAT_ID   = 25994
ELEMENT_SET_NO = 999
REV_AT_EPOCH   = 39519
BSTAR          = .12207E-3
MEAN_MOTION_DOT = .554E-5
MEAN_MOTION_DDOT = 0

CCSDS_OMM_VERS = 2.0
CREATION_DATE  = 
ORIGINATOR     = 

OBJECT_NAME    = SL-16 R/B
OBJECT_ID      = 2000-006B
CENTER_NAME    = EARTH
REF_FRAME      = TEME
TIME_SYSTEM    = UTC
MEAN_ELEMENT_THEORY = SGP/SGP4

EPOCH          = 2026-03-10T12:10:07.403232
MEAN_MOTION    = 14.15825706
ECCENTRICITY   = .0016732
INCLINATION    = 71.0009
RA_OF_ASC_NODE = 96.1189
ARG_OF_PERICENTER = 189.0411
MEAN_ANOMALY   = 171.0413

EPHEMERIS_TYPE = 0
CLASSIFICATION_TYPE = U
NORAD_CAT_ID   = 26070
ELEMENT_SET_NO = 999
REV_AT_EPOCH   = 34867
BSTAR          = -.38249E-4
MEAN_MOTION_DOT = -.123E-5
MEAN_MOTION_DDOT = 0

